#aV2014  9  8  0  0  0.00000000     288 DD+AD WGS84 FIT  NGA
## 1809  86400.00000000   300.00000000 56908 0.0000000000000
+   31     1  2  4  5  6  7  8  9 10 11 12 13 14 15 16 17 18
+         19 20 21 22 23 24 25 26 27 28 29 30 31 32  0  0  0
+          0  0  0  0  0  0  0  0  0  0  0  0  0  0  0  0  0
+          0  0  0  0  0  0  0  0  0  0  0  0  0  0  0  0  0
+          0  0  0  0  0  0  0  0  0  0  0  0  0  0  0  0  0
++         2  2  2  2  2  2  2  2  2  2  2  2  2  2  2  2  2
++         2  2  2  2  2  2  2  2  2  2  2  2  2  2  0  0  0
++         0  0  0  0  0  0  0  0  0  0  0  0  0  0  0  0  0
++         0  0  0  0  0  0  0  0  0  0  0  0  0  0  0  0  0
++         0  0  0  0  0  0  0  0  0  0  0  0  0  0  0  0  0
%c cc cc ccc ccc cccc cccc cccc cccc ccccc ccccc ccccc ccccc
%c cc cc ccc ccc cccc cccc cccc cccc ccccc ccccc ccccc ccccc
%f  0.0000000  0.000000000  0.00000000000  0.000000000000000
%f  0.0000000  0.000000000  0.00000000000  0.000000000000000
%i    0    0    0    0      0      0      0      0         0
%i    0    0    0    0      0      0      0      0         0
/*      NGA, ST. LOUIS,MO.                                  
/*   EPHEMERIS COMPUTED FROM  1 DAYS OF DATA                
/*   EPOCHA SMOOTHER                                       
/* CCCCCCCCCCCCCCCCCCCCCCCCCCCCCCCCCCCCCCCCCCCCCCCCCCCCCCCCC
*  2014  9  8 15 30  0.00000000
P  1  13287.660402 -18426.039063  13589.249283     20.902943                    
V  1  -1098.363969  17505.649461  24880.059999      0.005569                    
P  2 -14330.917034  -7116.129810 -20947.667746    517.270360                    
V  2   4829.972282 -26904.161228   5270.647276      0.021883                    
P  4   8069.520414 -24597.224325   4897.375057     -0.561513                    
V  4   2446.689830   7237.681003  30603.584937     -0.003258                    
P  5 -24234.146167    103.531755 -11107.267836   -341.647483                    
V  5  12323.165475  -7172.091918 -26879.396618      0.037072                    
P  6  -8157.397502 -19123.147571 -16549.872625     -5.064370                    
V  6   5651.319829 -20288.073305  20660.283087      0.003323                    
P  7   6568.279413 -25481.397009  -1515.652389    389.338252                    
V  7   2247.831408   2581.902580 -32181.659115      0.042535                    
P  8   9555.454704 -24247.348587  -2441.941753     15.463412                    
V  8   1078.860174   3912.640293 -32766.709219      0.001884                    
P  9   4500.332896 -15661.364138 -21126.146980     20.369525                    
V  9  20625.816684  16778.112724  -8059.820511     -0.001926                    
P 10 -12012.166847 -11981.385188 -20871.631625   -141.164697                    
V 10  24136.515655  -8824.717105  -8552.081298     -0.014746                    
P 11  13621.630450 -12109.384834  18757.734466   -519.677164                    
V 11   5566.886830  24723.782824  11787.961168     -0.029281                    
P 12 -23765.163659  10554.877944  -4883.127446    230.557209                    
V 12  -6456.661335   -197.853986  31698.829062      0.026331                    
P 13   4150.754159 -16139.690405 -20763.440368    -39.428074                    
V 13  18411.366183  18496.305351 -10928.276075     -0.039211                    
P 14  12931.855422  21628.093308   8868.751109    136.899778                    
V 14  -9224.881714  -6170.585920  29121.491768     -0.036967                    
P 15 -18416.319967   3184.598649  18921.667345   -201.660930                    
V 15 -17932.362900 -16233.544146 -14373.849227     -0.022247                    
P 16  24270.770068    818.935922 -11229.648320   -196.211681                    
V 16 -13103.225784   5136.501292 -27744.405413      0.024869                    
P 17 -13126.222057 -21308.773108   9491.805997   -122.434631                    
V 17   9857.220112   6447.586168  28686.720242     -0.026935                    
P 18  -5674.676751  17601.302954  19424.107146    343.481977                    
V 18 -23073.365242   6521.835159 -13288.174055      0.025223                    
P 19  19594.897553   2690.643719  17774.413794   -477.683119                    
V 19  14775.193487  17304.744536 -18297.482916     -0.019066                    
P 20  19871.151482 -15429.208125  -8600.825636    231.501928                    
V 20  11281.266343   -902.795637  28380.413956      0.044496                    
P 21  -1649.476437  26049.012559   4068.171917   -382.893681                    
V 21  -4670.324666   3693.220717 -30837.538569     -0.021014                    
P 22   8786.143872  13820.369616  21144.399729    266.092474                    
V 22 -24765.762279   9393.726295   4028.215917      0.033293                    
P 23  12429.614499  -9436.598053 -21397.954250    -50.788360                    
V 23  20528.943070  18253.348493   3428.923754     -0.029199                    
P 24 -14407.731896  15123.046445  16328.937630    -34.847234                    
V 24   1668.588374 -20851.880016  20861.661836     -0.005776                    
P 25 -15113.210614  15958.044323 -14892.020286     21.963711                    
V 25 -18317.003663   4561.466916  23728.320987     -0.009404                    
P 26 -21103.028180 -10530.861202  11831.131810    -48.030664                    
V 26  -9513.919340 -12942.220199 -26732.486891     -0.130285                    
P 27  22461.844038  10671.431022   9407.748044     12.824035                    
V 27   7499.056545   9602.097487 -28680.234217      0.030818                    
P 28  -3144.184262 -14589.045004  22577.391797    382.925068                    
V 28  26170.210881  -7123.033507  -1109.347877      0.027302                    
P 29  -3337.668015  16377.539393 -20623.376851    559.024941                    
V 29 -19494.800453 -17541.473292 -10721.344771      0.025225                    
P 30     98.015937 -24895.023999   9184.061486    -59.440354                    
V 30   5640.947564 -10572.146718 -28760.774844     -0.047604                    
P 31   8463.160182  17412.393264 -17885.957480    331.925451                    
V 31  -6530.786292  22206.379308  18674.103334     -0.004214                    
P 32  25721.108013  -4490.100437   2851.702056   -344.704059                    
V 32  -2612.471498   4472.679747  31536.024974      0.085162                    
EOF
